SL-3 R/B                
1 13403U 82079B   26028.95706148  .00007443  00000+0  30165-3 0  9990
2 13403  81.1444 239.9776 0024421 302.3111  57.5756 15.24232689371640
SL-14 R/B               
1 13553U 82092B   26028.94333429  .00000915  00000+0  99943-4 0  9995
2 13553  82.5689 178.5638 0021786  74.2800  46.3812 14.86618111323021
SL-3 R/B                
1 13819U 83010B   26028.49287361  .00018364  00000+0  38715-3 0  9990
2 13819  81.1023  51.4822 0017003 181.5927 178.5266 15.44948822351736
SL-3 R/B                
1 14208U 83075B   26028.99680353  .00016956  00000+0  46107-3 0  9996
2 14208  97.6123  32.1122 0022712  17.1563 343.0443 15.37355239324051
COSMOS 1536             
1 14699U 84013A   26028.78753978  .00010114  00000+0  42404-3 0  9990
2 14699  82.5473 147.4853 0015511  65.5790 294.7063 15.23263524266544
SL-14 R/B               
1 14820U 84027B   26028.76150452  .00000740  00000+0  81811-4 0  9997
2 14820  82.5418 282.4664 0019480 104.3500 255.9881 14.85935641241700
SL-8 R/B                
1 15483U 85006B   26028.99976521  .00000467  00000+0  16368-3 0  9999
2 15483  74.0476 334.1781 0019734 259.1138 174.6503 14.37760991148322
SL-12 R/B(2)            
1 15772U 85042D   26028.82573785  .00000267  00000+0  14144-3 0  9995
2 15772  71.1079 171.9463 0035611 191.3363 320.6805 14.21969527108720
SL-14 R/B               
1 15945U 85069B   26028.96033858  .00000754  00000+0  82514-4 0  9991
2 15945  82.5242  62.3019 0017917 328.2861  31.7275 14.86385242166938
SL-16 R/B               
1 16182U 85097B   26028.95852837  .00000245  00000+0  14700-3 0  9997
2 16182  71.0003 224.1955 0009126 306.5016 162.5380 14.16592087 81601
SL-14 R/B               
1 16496U 86006B   26028.81318449  .00001246  00000+0  12957-3 0  9991
2 16496  82.5282 297.2661 0077810  45.7057 315.0506 14.86754372143284
COSMOS 1743             
1 16719U 86034A   26028.73303624  .00046881  00000+0  68049-3 0  9997
2 16719  82.5351 115.6651 0005440  83.6077 276.5796 15.55604865174031
