CCSDS_OMM_VERS = 2.0
CREATION_DATE  = 
ORIGINATOR     = 

OBJECT_NAME    = SL-3 R/B
OBJECT_ID      = 1982-079B
CENTER_NAME    = EARTH
REF_FRAME      = TEME
TIME_SYSTEM    = UTC
MEAN_ELEMENT_THEORY = SGP/SGP4

EPOCH          = 2026-01-28T22:58:10.111872
MEAN_MOTION    = 15.24232689
ECCENTRICITY   = .00244217
INCLINATION    = 81.1444
RA_OF_ASC_NODE = 239.9776
ARG_OF_PERICENTER = 302.3111
MEAN_ANOMALY   = 57.5756

EPHEMERIS_TYPE = 0
CLASSIFICATION_TYPE = U
NORAD_CAT_ID   = 13403
ELEMENT_SET_NO = 999
REV_AT_EPOCH   = 37164
BSTAR          = .30164861E-3
MEAN_MOTION_DOT = .7443E-4
MEAN_MOTION_DDOT = 0

CCSDS_OMM_VERS = 2.0
CREATION_DATE  = 
ORIGINATOR     = 

OBJECT_NAME    = SL-14 R/B
OBJECT_ID      = 1982-092B
CENTER_NAME    = EARTH
REF_FRAME      = TEME
TIME_SYSTEM    = UTC
MEAN_ELEMENT_THEORY = SGP/SGP4

EPOCH          = 2026-01-28T22:38:24.082656
MEAN_MOTION    = 14.86618111
ECCENTRICITY   = .00217869
INCLINATION    = 82.5689
RA_OF_ASC_NODE = 178.5638
ARG_OF_PERICENTER = 74.2800
MEAN_ANOMALY   = 46.3812

EPHEMERIS_TYPE = 0
CLASSIFICATION_TYPE = U
NORAD_CAT_ID   = 13553
ELEMENT_SET_NO = 999
REV_AT_EPOCH   = 32302
BSTAR          = .99943103E-4
MEAN_MOTION_DOT = .915E-5
MEAN_MOTION_DDOT = 0

CCSDS_OMM_VERS = 2.0
CREATION_DATE  = 
ORIGINATOR     = 

OBJECT_NAME    = SL-3 R/B
OBJECT_ID      = 1983-010B
CENTER_NAME    = EARTH
REF_FRAME      = TEME
TIME_SYSTEM    = UTC
MEAN_ELEMENT_THEORY = SGP/SGP4

EPOCH          = 2026-01-28T11:49:44.279904
MEAN_MOTION    = 15.44948822
ECCENTRICITY   = .00170038
INCLINATION    = 81.1023
RA_OF_ASC_NODE = 51.4822
ARG_OF_PERICENTER = 181.5927
MEAN_ANOMALY   = 178.5266

EPHEMERIS_TYPE = 0
CLASSIFICATION_TYPE = U
NORAD_CAT_ID   = 13819
ELEMENT_SET_NO = 999
REV_AT_EPOCH   = 35173
BSTAR          = .38715367E-3
MEAN_MOTION_DOT = .18364E-3
MEAN_MOTION_DDOT = 0

CCSDS_OMM_VERS = 2.0
CREATION_DATE  = 
ORIGINATOR     = 

OBJECT_NAME    = SL-3 R/B
OBJECT_ID      = 1983-075B
CENTER_NAME    = EARTH
REF_FRAME      = TEME
TIME_SYSTEM    = UTC
MEAN_ELEMENT_THEORY = SGP/SGP4

EPOCH          = 2026-01-28T23:55:23.824992
MEAN_MOTION    = 15.37355239
ECCENTRICITY   = .00227129
INCLINATION    = 97.6123
RA_OF_ASC_NODE = 32.1122
ARG_OF_PERICENTER = 17.1563
MEAN_ANOMALY   = 343.0443

EPHEMERIS_TYPE = 0
CLASSIFICATION_TYPE = U
NORAD_CAT_ID   = 14208
ELEMENT_SET_NO = 999
REV_AT_EPOCH   = 32405
BSTAR          = .46107167E-3
MEAN_MOTION_DOT = .16956E-3
MEAN_MOTION_DDOT = 0

CCSDS_OMM_VERS = 2.0
CREATION_DATE  = 
ORIGINATOR     = 

OBJECT_NAME    = COSMOS 1536
OBJECT_ID      = 1984-013A
CENTER_NAME    = EARTH
REF_FRAME      = TEME
TIME_SYSTEM    = UTC
MEAN_ELEMENT_THEORY = SGP/SGP4

EPOCH          = 2026-01-28T18:54:03.436992
MEAN_MOTION    = 15.23263524
ECCENTRICITY   = .00155113
INCLINATION    = 82.5473
RA_OF_ASC_NODE = 147.4853
ARG_OF_PERICENTER = 65.5790
MEAN_ANOMALY   = 294.7063

EPHEMERIS_TYPE = 0
CLASSIFICATION_TYPE = U
NORAD_CAT_ID   = 14699
ELEMENT_SET_NO = 999
REV_AT_EPOCH   = 26654
BSTAR          = .42404127E-3
MEAN_MOTION_DOT = .10114E-3
MEAN_MOTION_DDOT = 0

CCSDS_OMM_VERS = 2.0
CREATION_DATE  = 
ORIGINATOR     = 

OBJECT_NAME    = SL-14 R/B
OBJECT_ID      = 1984-027B
CENTER_NAME    = EARTH
REF_FRAME      = TEME
TIME_SYSTEM    = UTC
MEAN_ELEMENT_THEORY = SGP/SGP4

EPOCH          = 2026-01-28T18:16:33.990528
MEAN_MOTION    = 14.85935641
ECCENTRICITY   = .00194808
INCLINATION    = 82.5418
RA_OF_ASC_NODE = 282.4664
ARG_OF_PERICENTER = 104.3500
MEAN_ANOMALY   = 255.9881

EPHEMERIS_TYPE = 0
CLASSIFICATION_TYPE = U
NORAD_CAT_ID   = 14820
ELEMENT_SET_NO = 999
REV_AT_EPOCH   = 24170
BSTAR          = .81811085E-4
MEAN_MOTION_DOT = .74E-5
MEAN_MOTION_DDOT = 0

CCSDS_OMM_VERS = 2.0
CREATION_DATE  = 
ORIGINATOR     = 

OBJECT_NAME    = SL-8 R/B
OBJECT_ID      = 1985-006B
CENTER_NAME    = EARTH
REF_FRAME      = TEME
TIME_SYSTEM    = UTC
MEAN_ELEMENT_THEORY = SGP/SGP4

EPOCH          = 2026-01-28T23:59:39.714144
MEAN_MOTION    = 14.37760991
ECCENTRICITY   = .0019734
INCLINATION    = 74.0476
RA_OF_ASC_NODE = 334.1781
ARG_OF_PERICENTER = 259.1138
MEAN_ANOMALY   = 174.6503

EPHEMERIS_TYPE = 0
CLASSIFICATION_TYPE = U
NORAD_CAT_ID   = 15483
ELEMENT_SET_NO = 999
REV_AT_EPOCH   = 14832
BSTAR          = .1636777E-3
MEAN_MOTION_DOT = .467E-5
MEAN_MOTION_DDOT = 0

CCSDS_OMM_VERS = 2.0
CREATION_DATE  = 
ORIGINATOR     = 

OBJECT_NAME    = SL-12 R/B(2)
OBJECT_ID      = 1985-042D
CENTER_NAME    = EARTH
REF_FRAME      = TEME
TIME_SYSTEM    = UTC
MEAN_ELEMENT_THEORY = SGP/SGP4

EPOCH          = 2026-01-28T19:49:03.750240
MEAN_MOTION    = 14.21969527
ECCENTRICITY   = .00356112
INCLINATION    = 71.1079
RA_OF_ASC_NODE = 171.9463
ARG_OF_PERICENTER = 191.3363
MEAN_ANOMALY   = 320.6805

EPHEMERIS_TYPE = 0
CLASSIFICATION_TYPE = U
NORAD_CAT_ID   = 15772
ELEMENT_SET_NO = 999
REV_AT_EPOCH   = 10872
BSTAR          = .14144461E-3
MEAN_MOTION_DOT = .267E-5
MEAN_MOTION_DDOT = 0

CCSDS_OMM_VERS = 2.0
CREATION_DATE  = 
ORIGINATOR     = 

OBJECT_NAME    = SL-14 R/B
OBJECT_ID      = 1985-069B
CENTER_NAME    = EARTH
REF_FRAME      = TEME
TIME_SYSTEM    = UTC
MEAN_ELEMENT_THEORY = SGP/SGP4

EPOCH          = 2026-01-28T23:02:53.253312
MEAN_MOTION    = 14.86385242
ECCENTRICITY   = .00179173
INCLINATION    = 82.5242
RA_OF_ASC_NODE = 62.3019
ARG_OF_PERICENTER = 328.2861
MEAN_ANOMALY   = 31.7275

EPHEMERIS_TYPE = 0
CLASSIFICATION_TYPE = U
NORAD_CAT_ID   = 15945
ELEMENT_SET_NO = 999
REV_AT_EPOCH   = 16693
BSTAR          = .82513712E-4
MEAN_MOTION_DOT = .754E-5
MEAN_MOTION_DDOT = 0

CCSDS_OMM_VERS = 2.0
CREATION_DATE  = 
ORIGINATOR     = 

OBJECT_NAME    = SL-16 R/B
OBJECT_ID      = 1985-097B
CENTER_NAME    = EARTH
REF_FRAME      = TEME
TIME_SYSTEM    = UTC
MEAN_ELEMENT_THEORY = SGP/SGP4

EPOCH          = 2026-01-28T23:00:16.851168
MEAN_MOTION    = 14.16592087
ECCENTRICITY   = .00091264
INCLINATION    = 71.0003
RA_OF_ASC_NODE = 224.1955
ARG_OF_PERICENTER = 306.5016
MEAN_ANOMALY   = 162.5380

EPHEMERIS_TYPE = 0
CLASSIFICATION_TYPE = U
NORAD_CAT_ID   = 16182
ELEMENT_SET_NO = 999
REV_AT_EPOCH   = 8160
BSTAR          = .14700349E-3
MEAN_MOTION_DOT = .245E-5
MEAN_MOTION_DDOT = 0

CCSDS_OMM_VERS = 2.0
CREATION_DATE  = 
ORIGINATOR     = 

OBJECT_NAME    = SL-14 R/B
OBJECT_ID      = 1986-006B
CENTER_NAME    = EARTH
REF_FRAME      = TEME
TIME_SYSTEM    = UTC
MEAN_ELEMENT_THEORY = SGP/SGP4

EPOCH          = 2026-01-28T19:30:59.139936
MEAN_MOTION    = 14.86754372
ECCENTRICITY   = .00778108
INCLINATION    = 82.5282
RA_OF_ASC_NODE = 297.2661
ARG_OF_PERICENTER = 45.7057
MEAN_ANOMALY   = 315.0506

EPHEMERIS_TYPE = 0
CLASSIFICATION_TYPE = U
NORAD_CAT_ID   = 16496
ELEMENT_SET_NO = 999
REV_AT_EPOCH   = 14328
BSTAR          = .12956546E-3
MEAN_MOTION_DOT = .1246E-4
MEAN_MOTION_DDOT = 0

CCSDS_OMM_VERS = 2.0
CREATION_DATE  = 
ORIGINATOR     = 

OBJECT_NAME    = COSMOS 1743
OBJECT_ID      = 1986-034A
CENTER_NAME    = EARTH
REF_FRAME      = TEME
TIME_SYSTEM    = UTC
MEAN_ELEMENT_THEORY = SGP/SGP4

EPOCH          = 2026-01-28T17:35:34.331136
MEAN_MOTION    = 15.55604865
ECCENTRICITY   = .00054407
INCLINATION    = 82.5351
RA_OF_ASC_NODE = 115.6651
ARG_OF_PERICENTER = 83.6077
MEAN_ANOMALY   = 276.5796

EPHEMERIS_TYPE = 0
CLASSIFICATION_TYPE = U
NORAD_CAT_ID   = 16719
ELEMENT_SET_NO = 999
REV_AT_EPOCH   = 17403
BSTAR          = .68049254E-3
MEAN_MOTION_DOT = .46881E-3
MEAN_MOTION_DDOT = 0

